[{"OBJECT_NAME":"GREGOIRE","OBJECT_ID":"2023-084Q","EPOCH":"2026-03-09T22:27:34.471296","MEAN_MOTION":15.35838856,"ECCENTRICITY":0.00062831,"INCLINATION":97.6076,"RA_OF_ASC_NODE":209.2239,"ARG_OF_PERICENTER":318.3511,"MEAN_ANOMALY":41.7253,"EPHEMERIS_TYPE":0,"CLASSIFICATION_TYPE":"U","NORAD_CAT_ID":56946,"ELEMENT_SET_NO":999,"REV_AT_EPOCH":15246,"BSTAR":0.00033169769,"MEAN_MOTION_DOT":0.00011493,"MEAN_MOTION_DDOT":0},{"OBJECT_NAME":"STARLINK-30148","OBJECT_ID":"2023-119R","EPOCH":"2026-03-09T22:00:01.999584","MEAN_MOTION":15.22155034,"ECCENTRICITY":0.00015016,"INCLINATION":43.0007,"RA_OF_ASC_NODE":79.7897,"ARG_OF_PERICENTER":287.7319,"MEAN_ANOMALY":193.3856,"EPHEMERIS_TYPE":0,"CLASSIFICATION_TYPE":"U","NORAD_CAT_ID":57617,"ELEMENT_SET_NO":999,"REV_AT_EPOCH":573,"BSTAR":0.046088081,"MEAN_MOTION_DOT":0.01172533,"MEAN_MOTION_DDOT":0}]
